NORAD_CAT_ID,OBJECT_NAME,OBJECT_TYPE,EPOCH,MEAN_MOTION,ECCENTRICITY,INCLINATION,RA_OF_ASC_NODE,ARG_OF_PERICENTER,MEAN_ANOMALY,BSTAR,MEAN_MOTION_DOT,MEAN_MOTION_DDOT,TLE_LINE0,TLE_LINE1,TLE_LINE2,SEMIMAJOR_AXIS,PERIOD,APOGEE,PERIGEE,DECAYED
52352.0,STARLINK-3838,PAYLOAD,2022-10-17 11:11:00,15.08835302,0.0002448,53.2169,2.2249,34.8619,325.2534,-6.657e-05,-1.348e-05,0.0,0 STARLINK-3838,1 52352U 22045X   22290.46597955 -.00001348  00000-0 -66570-4 0  9991,2 52352  53.2169   2.2249 0002448  34.8619 325.2534 15.08835302 28709,6917.895,95.438,541.453,538.066,0.0
52352.0,STARLINK-3838,PAYLOAD,2022-10-18 04:40:14,15.08835954,0.0002552999999999,53.2167,358.9552,31.2289,328.8854,3.3963e-05,2.52e-06,0.0,0 STARLINK-3838,1 52352U 22045X   22291.19461392  .00000252  00000-0  33963-4 0  9998,2 52352  53.2167 358.9552 0002553  31.2289 328.8854 15.08835954 28815,6917.893,95.438,541.524,537.992,0.0
52352.0,STARLINK-3838,PAYLOAD,2022-10-18 11:01:48,15.08825186,0.0002408,53.2167,357.7644,33.3442,326.7702,-4.3182e-05,-9.75e-06,0.0,0 STARLINK-3838,1 52352U 22045X   22291.45958472 -.00000975  00000-0 -43182-4 0  9995,2 52352  53.2167 357.7644 0002408  33.3442 326.7702 15.08825186 28856,6917.926,95.438,541.457,538.125,0.0
52352.0,STARLINK-3838,PAYLOAD,2022-10-19 04:31:02,15.08832908,0.0002413,53.2165,354.4933,33.7962,326.3184,6.909699999999999e-05,8.11e-06,0.0,0 STARLINK-3838,1 52352U 22045X   22292.18822011  .00000811  00000-0  69097-4 0  9995,2 52352  53.2165 354.4933 0002413  33.7962 326.3184 15.08832908 28968,6917.901999999999,95.438,541.436,538.0980000000002,0.0
52352.0,STARLINK-3838,PAYLOAD,2022-10-19 10:52:34,15.0883539,0.000256,53.2166,353.3041,31.0369,329.0774,0.00011749,1.582e-05,0.0,0 STARLINK-3838,1 52352U 22045X   22292.45317796  .00001582  00000-0  11749-3 0  9990,2 52352  53.2166 353.3041 0002560  31.0369 329.0774 15.08835390 29001,6917.894,95.438,541.53,537.988,0.0
52352.0,STARLINK-3838,PAYLOAD,2022-10-20 09:07:58,15.08838073,0.0002115,53.2168,349.1406,34.891,325.2221,6.8792e-05,8.07e-06,0.0,0 STARLINK-3838,1 52352U 22045X   22293.38053777  .00000807  00000-0  68792-4 0  9999,2 52352  53.2168 349.1406 0002115  34.8910 325.2221 15.08838073 29141,6917.886,95.438,541.214,538.288,0.0
52352.0,STARLINK-3838,PAYLOAD,2022-10-20 20:15:41,15.08829534,0.000225,53.2174,347.0612,31.899,328.2138,3.119e-05,2.08e-06,0.0,0 STARLINK-3838,1 52352U 22045X   22293.84422705  .00000208  00000-0  31190-4 0  9998,2 52352  53.2174 347.0612 0002250  31.8990 328.2138 15.08829534 29219,6917.9119999999975,95.438,541.3340000000002,538.221,0.0
52352.0,STARLINK-3838,PAYLOAD,2022-10-21 10:34:09,15.08831941,0.0002607,53.2168,344.3837,24.5421,335.5695,-4.4102e-05,-9.9e-06,0.0,0 STARLINK-3838,1 52352U 22045X   22294.44038974 -.00000990  00000-0 -44102-4 0  9993,2 52352  53.2168 344.3837 0002607  24.5421 335.5695 15.08831941 29309,6917.905,95.438,541.5740000000002,537.967,0.0
52352.0,STARLINK-3838,PAYLOAD,2022-10-22 04:03:23,15.0884522,0.0002621,53.2168,341.1121,25.1813,334.9306,3.6889e-05,2.99e-06,0.0,0 STARLINK-3838,1 52352U 22045X   22295.16901908  .00000299  00000-0  36889-4 0  9992,2 52352  53.2168 341.1121 0002621  25.1813 334.9306 15.08845220 29417,6917.864000000001,95.437,541.543,537.9159999999998,0.0
52352.0,STARLINK-3838,PAYLOAD,2022-10-22 08:49:32,15.08842472,0.00027,53.2169,340.2198,26.4889,333.6241,-3.9702e-06,-3.52e-06,0.0,0 STARLINK-3838,1 52352U 22045X   22295.36774197 -.00000352  00000-0 -39702-5 0  9992,2 52352  53.2169 340.2198 0002700  26.4889 333.6241 15.08842472 29440,6917.873000000001,95.437,541.606,537.87,0.0
52352.0,STARLINK-3838,PAYLOAD,2022-10-22 19:57:15,15.08835659,0.0002588,53.2162,338.1382,26.9591,333.1535,4.3017e-05,3.96e-06,0.0,0 STARLINK-3838,1 52352U 22045X   22295.83142454  .00000396  00000-0  43017-4 0  9998,2 52352  53.2162 338.1382 0002588  26.9591 333.1535 15.08835659 29511,6917.894,95.438,541.549,537.9680000000002,0.0
52352.0,STARLINK-3838,PAYLOAD,2022-10-23 05:29:33,15.08845034,0.0002438,53.217,336.3546,21.341,338.7684,4.319e-05,3.99e-06,0.0,0 STARLINK-3838,1 52352U 22045X   22296.22885657  .00000399  00000-0  43190-4 0  9996,2 52352  53.2170 336.3546 0002438  21.3410 338.7684 15.08845034 29575,6917.865,95.437,541.4169999999998,538.043,0.0
52352.0,STARLINK-3838,PAYLOAD,2022-10-23 11:51:05,15.08839939,0.0002644,53.2168,335.1645,24.1194,335.9921,8.3436e-05,1.04e-05,0.0,0 STARLINK-3838,1 52352U 22045X   22296.49381861  .00001040  00000-0  83436-4 0  9994,2 52352  53.2168 335.1645 0002644  24.1194 335.9921 15.08839939 29613,6917.880999999999,95.438,541.575,537.9159999999998,0.0
52352.0,STARLINK-3838,PAYLOAD,2022-10-23 19:48:01,15.08848234,0.0002695,53.2171,333.6769,25.1869,334.9254,6.247800000000001e-05,7.06e-06,0.0,0 STARLINK-3838,1 52352U 22045X   22296.82501296  .00000706  00000-0  62478-4 0  9998,2 52352  53.2171 333.6769 0002695  25.1869 334.9254 15.08848234 29664,6917.855,95.437,541.585,537.856,0.0
52352.0,STARLINK-3838,PAYLOAD,2022-10-24 10:06:30,15.08837502,0.0002532,53.2173,331.0021,26.7247,333.3875,-9.0608e-05,-1.73e-05,0.0,0 STARLINK-3838,1 52352U 22045X   22297.42118153 -.00001730  00000-0 -90608-4 0  9997,2 52352  53.2173 331.0021 0002532  26.7247 333.3875 15.08837502 29754,6917.888000000001,95.438,541.505,538.001,0.0
52352.0,STARLINK-3838,PAYLOAD,2022-10-24 19:38:50,15.08817061,0.0002683,53.2178,329.2155,26.8353,333.2778,-0.0001833,-3.203e-05,0.0,0 STARLINK-3838,1 52352U 22045X   22297.81864132 -.00003203  00000-0 -18330-3 0  9993,2 52352  53.2178 329.2155 0002683  26.8353 333.2778 15.08817061 29818,6917.951,95.439,541.672,537.9590000000002,0.0
52352.0,STARLINK-3838,PAYLOAD,2022-10-25 08:21:55,15.08822664,0.0002609,53.2167,326.8385,24.9825,335.1293,-0.00016523,-2.916e-05,0.0,0 STARLINK-3838,1 52352U 22045X   22298.34856208 -.00002916  00000-0 -16523-3 0  9999,2 52352  53.2167 326.8385 0002609  24.9825 335.1293 15.08822664 29891,6917.933000000001,95.439,541.6030000000002,537.993,0.0
52352.0,STARLINK-3838,PAYLOAD,2022-10-25 19:29:37,15.0882824,0.0002691,53.2167,324.7573,25.505,334.6074,-0.00011033,-2.044e-05,0.0,0 STARLINK-3838,1 52352U 22045X   22298.81224109 -.00002044  00000-0 -11033-3 0  9993,2 52352  53.2167 324.7573 0002691  25.5050 334.6074 15.08828240 29960,6917.916,95.438,541.643,537.92,0.0
52352.0,STARLINK-3838,PAYLOAD,2022-10-26 03:26:33,15.08833322,0.000271,53.2167,323.2702,26.5146,333.5984,-8.0162e-05,-1.564e-05,0.0,0 STARLINK-3838,1 52352U 22045X   22299.14343927 -.00001564  00000-0 -80162-4 0  9996,2 52352  53.2167 323.2702 0002710  26.5146 333.5984 15.08833322 30010,6917.901,95.438,541.641,537.891,0.0
52352.0,STARLINK-3838,PAYLOAD,2022-10-26 11:23:28,15.08831621,0.0002836999999999,53.2166,321.7834,27.6767,332.4376,1.7129e-05,-1.6e-07,0.0,0 STARLINK-3838,1 52352U 22045X   22299.47463938 -.00000016  00000-0  17129-4 0  9990,2 52352  53.2166 321.7834 0002837  27.6767 332.4376 15.08831621 30067,6917.906,95.438,541.734,537.808,0.0
52352.0,STARLINK-3838,PAYLOAD,2022-10-27 08:03:29,15.08836786,0.0002783,53.2164,317.9173,27.8324,332.2816,0.00022856,3.351e-05,0.0,0 STARLINK-3838,1 52352U 22045X   22300.33575487  .00003351  00000-0  22856-3 0  9997,2 52352  53.2164 317.9173 0002783  27.8324 332.2816 15.08836786 30197,6917.89,95.438,541.68,537.83,0.0
52352.0,STARLINK-3838,PAYLOAD,2022-10-28 06:18:52,15.08850372,0.0002866,53.2162,313.7541,30.0869,330.0288,0.00015379,2.161e-05,0.0,0 STARLINK-3838,1 52352U 22045X   22301.26310508  .00002161  00000-0  15379-3 0  9991,2 52352  53.2162 313.7541 0002866  30.0869 330.0288 15.08850372 30332,6917.849,95.437,541.696,537.731,0.0
52352.0,STARLINK-3838,PAYLOAD,2022-10-28 07:54:15,15.08850022,0.0002852,53.2162,313.4564,30.5235,329.5923,0.00014923,2.088e-05,0.0,0 STARLINK-3838,1 52352U 22045X   22301.32934498  .00002088  00000-0  14923-3 0  9990,2 52352  53.2162 313.4564 0002852  30.5235 329.5923 15.08850022 30343,6917.85,95.437,541.688,537.742,0.0
52352.0,STARLINK-3838,PAYLOAD,2022-10-28 17:26:34,15.08841945,0.0002904,53.216,311.6723,30.224,329.8919,1.4925e-05,-5.1e-07,0.0,0 STARLINK-3838,1 52352U 22045X   22301.72679287 -.00000051  00000-0  14925-4 0  9998,2 52352  53.2160 311.6723 0002904  30.2240 329.8919 15.08841945 30408,6917.874,95.437,541.748,537.73,0.0
52352.0,STARLINK-3838,PAYLOAD,2022-10-29 04:34:16,15.0884961,0.0002895,53.2171,309.589,26.277,333.8368,-3.4092e-05,-8.31e-06,0.0,0 STARLINK-3838,1 52352U 22045X   22302.19046578 -.00000831  00000-0 -34092-4 0  9995,2 52352  53.2171 309.5890 0002895  26.2770 333.8368 15.08849610 30470,6917.851,95.437,541.719,537.7130000000002,0.0
52352.0,STARLINK-3838,PAYLOAD,2022-10-29 17:17:21,15.08843609,0.0002862,53.2163,307.2101,28.5126,331.6022,-0.0001359,-2.451e-05,0.0,0 STARLINK-3838,1 52352U 22045X   22302.72039033 -.00002451  00000-0 -13590-3 0  9991,2 52352  53.2163 307.2101 0002862  28.5126 331.6022 15.08843609 30559,6917.869000000002,95.437,541.714,537.754,0.0
52352.0,STARLINK-3838,PAYLOAD,2022-10-30 07:35:49,15.0884052,0.0002867,53.2163,304.5332,28.9708,331.1442,-8.1306e-05,-1.582e-05,0.0,0 STARLINK-3838,1 52352U 22045X   22303.31654800 -.00001582  00000-0 -81306-4 0  9997,2 52352  53.2163 304.5332 0002867  28.9708 331.1442 15.08840520 30640,6917.879,95.438,541.727,537.76,0.0
52352.0,STARLINK-3838,PAYLOAD,2022-10-30 17:08:07,15.08848141,0.0002841,53.2163,302.7512,30.4755,329.6402,-1.94e-05,-5.97e-06,0.0,0 STARLINK-3838,1 52352U 22045X   22303.71397981 -.00000597  00000-0 -19400-4 0  9996,2 52352  53.2163 302.7512 0002841  30.4755 329.6402 15.08848141 30704,6917.856,95.437,541.686,537.755,0.0
52352.0,STARLINK-3838,PAYLOAD,2022-10-31 07:26:36,15.08839886,0.0002869,53.2157,300.0752,28.2213,331.8934,2.449e-05,1.01e-06,0.0,0 STARLINK-3838,1 52352U 22045X   22304.31014239  .00000101  00000-0  24490-4 0  9999,2 52352  53.2157 300.0752 0002869  28.2213 331.8934 15.08839886 30798,6917.880999999999,95.438,541.73,537.761,0.0
